SL-16 R/B               
1 25400U 98043G   25342.58850533  .00000194  00000+0  10029-3 0  9996
2 25400  98.8118 290.3835 0008836 280.2250  79.7933 14.26024189426009
SL-16 R/B               
1 25407U 98045B   25342.52667603 -.00000078  00000+0 -15041-4 0  9996
2 25407  71.0123  13.2872 0007144 184.3634 175.7429 14.16176147414194
ISS (ZARYA)             
1 25544U 98067A   25342.54239145  .00012445  00000+0  23028-3 0  9992
2 25544  51.6307 163.2617 0003393 220.7658 139.3077 15.49420853542202
CZ-4B R/B               
1 25732U 99025C   25342.66692311  .00000165  00000+0  10067-3 0  9992
2 25732  98.6773  24.0379 0036168 246.0124 224.1358 14.18242207375268
OKEAN-O                 
1 25860U 99039A   25342.59827822  .00001561  00000+0  21252-3 0  9997
2 25860  97.9607  38.3357 0000799  88.7422 271.3882 14.80151494420910
SL-16 R/B               
1 25861U 99039B   25342.59733949  .00001313  00000+0  17378-3 0  9993
2 25861  98.0130  36.7481 0014596 188.1998 171.8978 14.81578358423373
DELTA 2 R/B             
1 25876U 99041E   25342.60659299  .00001802  00000+0  32940-3 0  9994
2 25876  51.7620 304.9450 0504751  79.5845 286.1550 14.11385886350163
HELIOS 1B               
1 25977U 99064A   25342.63223307  .00003479  00000+0  39246-3 0  9999
2 25977  98.1753 237.1760 0001921  48.1046 312.0333 14.87257121671723
TERRA                   
1 25994U 99068A   25342.63513824  .00001021  00000+0  21750-3 0  9990
2 25994  97.9754  34.4702 0003529 106.0195  10.3787 14.60946141381782
SL-16 R/B               
1 26070U 00006B   25342.58909206  .00000102  00000+0  76315-4 0  9994
2 26070  71.0032 289.3842 0018298 314.3936  45.5688 14.15810556335668
TITAN 4B R/B            
1 26474U 00047B   25342.50023875  .00005597  00000+0  35771-3 0  9991
2 26474  67.9905 296.7609 0039273 149.7757 210.5670 15.08732696379157
ENVISAT                 
1 27386U 02009A   25342.61604304  .00000311  00000+0  11459-3 0  9994
2 27386  98.3594 293.4612 0001150  81.7110  91.2031 14.38997102246077
