CCSDS_OMM_VERS = 2.0
CREATION_DATE  = 
ORIGINATOR     = 

OBJECT_NAME    = SL-16 R/B
OBJECT_ID      = 1998-043G
CENTER_NAME    = EARTH
REF_FRAME      = TEME
TIME_SYSTEM    = UTC
MEAN_ELEMENT_THEORY = SGP/SGP4

EPOCH          = 2025-12-08T14:07:26.860512
MEAN_MOTION    = 14.26024189
ECCENTRICITY   = .00088365
INCLINATION    = 98.8118
RA_OF_ASC_NODE = 290.3835
ARG_OF_PERICENTER = 280.2250
MEAN_ANOMALY   = 79.7933

EPHEMERIS_TYPE = 0
CLASSIFICATION_TYPE = U
NORAD_CAT_ID   = 25400
ELEMENT_SET_NO = 999
REV_AT_EPOCH   = 42600
BSTAR          = .1002866E-3
MEAN_MOTION_DOT = .194E-5
MEAN_MOTION_DDOT = 0

CCSDS_OMM_VERS = 2.0
CREATION_DATE  = 
ORIGINATOR     = 

OBJECT_NAME    = SL-16 R/B
OBJECT_ID      = 1998-045B
CENTER_NAME    = EARTH
REF_FRAME      = TEME
TIME_SYSTEM    = UTC
MEAN_ELEMENT_THEORY = SGP/SGP4

EPOCH          = 2025-12-08T12:38:24.808992
MEAN_MOTION    = 14.16176147
ECCENTRICITY   = .00071445
INCLINATION    = 71.0123
RA_OF_ASC_NODE = 13.2872
ARG_OF_PERICENTER = 184.3634
MEAN_ANOMALY   = 175.7429

EPHEMERIS_TYPE = 0
CLASSIFICATION_TYPE = U
NORAD_CAT_ID   = 25407
ELEMENT_SET_NO = 999
REV_AT_EPOCH   = 41419
BSTAR          = -.15040841E-4
MEAN_MOTION_DOT = -.78E-6
MEAN_MOTION_DDOT = 0

CCSDS_OMM_VERS = 2.0
CREATION_DATE  = 
ORIGINATOR     = 

OBJECT_NAME    = ISS (ZARYA)
OBJECT_ID      = 1998-067A
CENTER_NAME    = EARTH
REF_FRAME      = TEME
TIME_SYSTEM    = UTC
MEAN_ELEMENT_THEORY = SGP/SGP4

EPOCH          = 2025-12-08T13:01:02.621280
MEAN_MOTION    = 15.49420853
ECCENTRICITY   = .00033936
INCLINATION    = 51.6307
RA_OF_ASC_NODE = 163.2617
ARG_OF_PERICENTER = 220.7658
MEAN_ANOMALY   = 139.3077

EPHEMERIS_TYPE = 0
CLASSIFICATION_TYPE = U
NORAD_CAT_ID   = 25544
ELEMENT_SET_NO = 999
REV_AT_EPOCH   = 54220
BSTAR          = .23027995E-3
MEAN_MOTION_DOT = .12445E-3
MEAN_MOTION_DDOT = 0

CCSDS_OMM_VERS = 2.0
CREATION_DATE  = 
ORIGINATOR     = 

OBJECT_NAME    = CZ-4B R/B
OBJECT_ID      = 1999-025C
CENTER_NAME    = EARTH
REF_FRAME      = TEME
TIME_SYSTEM    = UTC
MEAN_ELEMENT_THEORY = SGP/SGP4

EPOCH          = 2025-12-08T16:00:22.156704
MEAN_MOTION    = 14.18242207
ECCENTRICITY   = .00361681
INCLINATION    = 98.6773
RA_OF_ASC_NODE = 24.0379
ARG_OF_PERICENTER = 246.0124
MEAN_ANOMALY   = 224.1358

EPHEMERIS_TYPE = 0
CLASSIFICATION_TYPE = U
NORAD_CAT_ID   = 25732
ELEMENT_SET_NO = 999
REV_AT_EPOCH   = 37526
BSTAR          = .10067194E-3
MEAN_MOTION_DOT = .165E-5
MEAN_MOTION_DDOT = 0

CCSDS_OMM_VERS = 2.0
CREATION_DATE  = 
ORIGINATOR     = 

OBJECT_NAME    = OKEAN-O
OBJECT_ID      = 1999-039A
CENTER_NAME    = EARTH
REF_FRAME      = TEME
TIME_SYSTEM    = UTC
MEAN_ELEMENT_THEORY = SGP/SGP4

EPOCH          = 2025-12-08T14:21:31.238208
MEAN_MOTION    = 14.80151494
ECCENTRICITY   = .00007994
INCLINATION    = 97.9607
RA_OF_ASC_NODE = 38.3357
ARG_OF_PERICENTER = 88.7422
MEAN_ANOMALY   = 271.3882

EPHEMERIS_TYPE = 0
CLASSIFICATION_TYPE = U
NORAD_CAT_ID   = 25860
ELEMENT_SET_NO = 999
REV_AT_EPOCH   = 42091
BSTAR          = .212518E-3
MEAN_MOTION_DOT = .1561E-4
MEAN_MOTION_DDOT = 0

CCSDS_OMM_VERS = 2.0
CREATION_DATE  = 
ORIGINATOR     = 

OBJECT_NAME    = SL-16 R/B
OBJECT_ID      = 1999-039B
CENTER_NAME    = EARTH
REF_FRAME      = TEME
TIME_SYSTEM    = UTC
MEAN_ELEMENT_THEORY = SGP/SGP4

EPOCH          = 2025-12-08T14:20:10.131936
MEAN_MOTION    = 14.81578358
ECCENTRICITY   = .00145961
INCLINATION    = 98.0130
RA_OF_ASC_NODE = 36.7481
ARG_OF_PERICENTER = 188.1998
MEAN_ANOMALY   = 171.8978

EPHEMERIS_TYPE = 0
CLASSIFICATION_TYPE = U
NORAD_CAT_ID   = 25861
ELEMENT_SET_NO = 999
REV_AT_EPOCH   = 42337
BSTAR          = .17378175E-3
MEAN_MOTION_DOT = .1313E-4
MEAN_MOTION_DDOT = 0

CCSDS_OMM_VERS = 2.0
CREATION_DATE  = 
ORIGINATOR     = 

OBJECT_NAME    = DELTA 2 R/B
OBJECT_ID      = 1999-041E
CENTER_NAME    = EARTH
REF_FRAME      = TEME
TIME_SYSTEM    = UTC
MEAN_ELEMENT_THEORY = SGP/SGP4

EPOCH          = 2025-12-08T14:33:29.634336
MEAN_MOTION    = 14.11385886
ECCENTRICITY   = .05047511
INCLINATION    = 51.7620
RA_OF_ASC_NODE = 304.9450
ARG_OF_PERICENTER = 79.5845
MEAN_ANOMALY   = 286.1550

EPHEMERIS_TYPE = 0
CLASSIFICATION_TYPE = U
NORAD_CAT_ID   = 25876
ELEMENT_SET_NO = 999
REV_AT_EPOCH   = 35016
BSTAR          = .32940277E-3
MEAN_MOTION_DOT = .1802E-4
MEAN_MOTION_DDOT = 0

CCSDS_OMM_VERS = 2.0
CREATION_DATE  = 
ORIGINATOR     = 

OBJECT_NAME    = HELIOS 1B
OBJECT_ID      = 1999-064A
CENTER_NAME    = EARTH
REF_FRAME      = TEME
TIME_SYSTEM    = UTC
MEAN_ELEMENT_THEORY = SGP/SGP4

EPOCH          = 2025-12-08T15:10:24.937248
MEAN_MOTION    = 14.87257121
ECCENTRICITY   = .00019219
INCLINATION    = 98.1753
RA_OF_ASC_NODE = 237.1760
ARG_OF_PERICENTER = 48.1046
MEAN_ANOMALY   = 312.0333

EPHEMERIS_TYPE = 0
CLASSIFICATION_TYPE = U
NORAD_CAT_ID   = 25977
ELEMENT_SET_NO = 999
REV_AT_EPOCH   = 67172
BSTAR          = .39246177E-3
MEAN_MOTION_DOT = .3479E-4
MEAN_MOTION_DDOT = 0

CCSDS_OMM_VERS = 2.0
CREATION_DATE  = 
ORIGINATOR     = 

OBJECT_NAME    = TERRA
OBJECT_ID      = 1999-068A
CENTER_NAME    = EARTH
REF_FRAME      = TEME
TIME_SYSTEM    = UTC
MEAN_ELEMENT_THEORY = SGP/SGP4

EPOCH          = 2025-12-08T15:14:35.943936
MEAN_MOTION    = 14.60946141
ECCENTRICITY   = .00035293
INCLINATION    = 97.9754
RA_OF_ASC_NODE = 34.4702
ARG_OF_PERICENTER = 106.0195
MEAN_ANOMALY   = 10.3787

EPHEMERIS_TYPE = 0
CLASSIFICATION_TYPE = U
NORAD_CAT_ID   = 25994
ELEMENT_SET_NO = 999
REV_AT_EPOCH   = 38178
BSTAR          = .2175042E-3
MEAN_MOTION_DOT = .1021E-4
MEAN_MOTION_DDOT = 0

CCSDS_OMM_VERS = 2.0
CREATION_DATE  = 
ORIGINATOR     = 

OBJECT_NAME    = SL-16 R/B
OBJECT_ID      = 2000-006B
CENTER_NAME    = EARTH
REF_FRAME      = TEME
TIME_SYSTEM    = UTC
MEAN_ELEMENT_THEORY = SGP/SGP4

EPOCH          = 2025-12-08T14:08:17.553984
MEAN_MOTION    = 14.15810556
ECCENTRICITY   = .00182985
INCLINATION    = 71.0032
RA_OF_ASC_NODE = 289.3842
ARG_OF_PERICENTER = 314.3936
MEAN_ANOMALY   = 45.5688

EPHEMERIS_TYPE = 0
CLASSIFICATION_TYPE = U
NORAD_CAT_ID   = 26070
ELEMENT_SET_NO = 999
REV_AT_EPOCH   = 33566
BSTAR          = .76314711E-4
MEAN_MOTION_DOT = .102E-5
MEAN_MOTION_DDOT = 0

CCSDS_OMM_VERS = 2.0
CREATION_DATE  = 
ORIGINATOR     = 

OBJECT_NAME    = TITAN 4B R/B
OBJECT_ID      = 2000-047B
CENTER_NAME    = EARTH
REF_FRAME      = TEME
TIME_SYSTEM    = UTC
MEAN_ELEMENT_THEORY = SGP/SGP4

EPOCH          = 2025-12-08T12:00:20.628000
MEAN_MOTION    = 15.08732696
ECCENTRICITY   = .00392731
INCLINATION    = 67.9905
RA_OF_ASC_NODE = 296.7609
ARG_OF_PERICENTER = 149.7757
MEAN_ANOMALY   = 210.5670

EPHEMERIS_TYPE = 0
CLASSIFICATION_TYPE = U
NORAD_CAT_ID   = 26474
ELEMENT_SET_NO = 999
REV_AT_EPOCH   = 37915
BSTAR          = .35770672E-3
MEAN_MOTION_DOT = .5597E-4
MEAN_MOTION_DDOT = 0

CCSDS_OMM_VERS = 2.0
CREATION_DATE  = 
ORIGINATOR     = 

OBJECT_NAME    = ENVISAT
OBJECT_ID      = 2002-009A
CENTER_NAME    = EARTH
REF_FRAME      = TEME
TIME_SYSTEM    = UTC
MEAN_ELEMENT_THEORY = SGP/SGP4

EPOCH          = 2025-12-08T14:47:06.118656
MEAN_MOTION    = 14.38997102
ECCENTRICITY   = .00011502
INCLINATION    = 98.3594
RA_OF_ASC_NODE = 293.4612
ARG_OF_PERICENTER = 81.7110
MEAN_ANOMALY   = 91.2031

EPHEMERIS_TYPE = 0
CLASSIFICATION_TYPE = U
NORAD_CAT_ID   = 27386
ELEMENT_SET_NO = 999
REV_AT_EPOCH   = 24607
BSTAR          = .11459136E-3
MEAN_MOTION_DOT = .311E-5
MEAN_MOTION_DDOT = 0

